[{"OBJECT_NAME":"AQUA","OBJECT_ID":"2002-022A","EPOCH":"2026-03-09T23:03:04.467168","MEAN_MOTION":14.6197796,"ECCENTRICITY":5.597e-5,"INCLINATION":98.4175,"RA_OF_ASC_NODE":36.3303,"ARG_OF_PERICENTER":81.6608,"MEAN_ANOMALY":350.7427,"EPHEMERIS_TYPE":0,"CLASSIFICATION_TYPE":"U","NORAD_CAT_ID":27424,"ELEMENT_SET_NO":999,"REV_AT_EPOCH":26877,"BSTAR":0.00028652441,"MEAN_MOTION_DOT":1.387e-5,"MEAN_MOTION_DDOT":0},{"OBJECT_NAME":"COSMOS 1670 DEB","OBJECT_ID":"1985-064F","EPOCH":"2026-03-05T02:07:53.179680","MEAN_MOTION":14.60519328,"ECCENTRICITY":0.00222115,"INCLINATION":64.8928,"RA_OF_ASC_NODE":291.183,"ARG_OF_PERICENTER":8.9117,"MEAN_ANOMALY":69.0702,"EPHEMERIS_TYPE":0,"CLASSIFICATION_TYPE":"U","NORAD_CAT_ID":44569,"ELEMENT_SET_NO":999,"REV_AT_EPOCH":9091,"BSTAR":0.004693666,"MEAN_MOTION_DOT":0.00022884,"MEAN_MOTION_DDOT":0}]
